{
    "links": {
        "self": "http://www.neowsapp.com/rest/v1/neo/3508120?api_key=iIulBulltgU6a56xZRHN4H3l9WmuAYTsLGpBGhQ2"
    },
    "id": "3508120",
    "neo_reference_id": "3508120",
    "name": "(2010 CQ19)",
    "designation": "2010 CQ19",
    "nasa_jpl_url": "http://ssd.jpl.nasa.gov/sbdb.cgi?sstr=3508120",
    "absolute_magnitude_h": 27.1,
    "estimated_diameter": {
        "kilometers": {
            "estimated_diameter_min": 0.0101054342,
            "estimated_diameter_max": 0.0225964377
        },
        "meters": {
            "estimated_diameter_min": 10.1054341542,
            "estimated_diameter_max": 22.5964377109
        },
        "miles": {
            "estimated_diameter_min": 0.0062792237,
            "estimated_diameter_max": 0.0140407711
        },
        "feet": {
            "estimated_diameter_min": 33.1543125905,
            "estimated_diameter_max": 74.1352966996
        }
    },
    "is_potentially_hazardous_asteroid": false,
    "close_approach_data": [
        {
            "close_approach_date": "2010-02-11",
            "close_approach_date_full": "2010-Feb-11 15:49",
            "epoch_date_close_approach": 1265903340000,
            "relative_velocity": {
                "kilometers_per_second": "8.8646752016",
                "kilometers_per_hour": "31912.8307258813",
                "miles_per_hour": "19829.3919585344"
            },
            "miss_distance": {
                "astronomical": "0.0326455932",
                "lunar": "12.6991357548",
                "kilometers": "4883711.207606484",
                "miles": "3034597.4282541192"
            },
            "orbiting_body": "Earth"
        }
    ],
    "orbital_data": {
        "orbit_id": "10",
        "orbit_determination_date": "2017-04-06 08:58:24",
        "first_observation_date": "2010-02-15",
        "last_observation_date": "2010-02-19",
        "data_arc_in_days": 4,
        "observations_used": 22,
        "orbit_uncertainty": "8",
        "minimum_orbit_intersection": ".00936485",
        "jupiter_tisserand_invariant": "2.996",
        "epoch_osculation": "2455244.5",
        "eccentricity": ".6417293614722082",
        "semi_major_axis": "2.772975419953575",
        "inclination": ".1567256841012244",
        "ascending_node_longitude": "211.4677172323312",
        "orbital_period": "1686.620819008301",
        "perihelion_distance": ".9934756743286391",
        "perihelion_argument": "271.6946133332467",
        "aphelion_distance": "4.552475165578511",
        "perihelion_time": "2455224.497686251991",
        "mean_anomaly": "4.269384599152039",
        "mean_motion": ".213444537113963",
        "equinox": "J2000",
        "orbit_class": {
            "orbit_class_type": "APO",
            "orbit_class_description": "Near-Earth asteroid orbits which cross the Earth’s orbit similar to that of 1862 Apollo",
            "orbit_class_range": "a (semi-major axis) > 1.0 AU; q (perihelion) < 1.017 AU"
        }
    },
    "is_sentry_object": false
}